{
  "norad_id": 48116,
  "name": "STARLINK-2454",
  "history": [
    {
      "epoch": "2026-03-28T09:13:07.904064Z",
      "apogee_km": 476.0167212055503,
      "perigee_km": 474.39713896799276,
      "latitude_deg": -1.2829333973414008e-06,
      "longitude_deg": 114.34312449995811,
      "height_km": 476.24853713858926,
      "semi_major_axis_km": 6853.343930086771,
      "eccentricity": 0.00011816,
      "inclination_deg": 53.1597,
      "raan_deg": 78.4314,
      "arg_perigee_deg": 100.2013,
      "mean_anomaly_deg": 259.9121,
      "mean_motion_rev_day": 15.30202726
    },
    {
      "epoch": "2026-03-29T05:35:48.501600Z",
      "apogee_km": 475.9427083307846,
      "perigee_km": 474.30477901304675,
      "latitude_deg": -4.31317549059676e-06,
      "longitude_deg": 163.89277330822372,
      "height_km": 476.210291991598,
      "semi_major_axis_km": 6853.260743671915,
      "eccentricity": 0.0001195,
      "inclination_deg": 53.1602,
      "raan_deg": 74.4871,
      "arg_perigee_deg": 103.2924,
      "mean_anomaly_deg": 256.821,
      "mean_motion_rev_day": 15.30230587
    },
    {
      "epoch": "2026-03-30T05:06:36.711360Z",
      "apogee_km": 475.45691685767633,
      "perigee_km": 475.0406422054275,
      "latitude_deg": -1.5879111904051463e-05,
      "longitude_deg": 165.67523064757845,
      "height_km": 475.94150720805067,
      "semi_major_axis_km": 6853.385779531552,
      "eccentricity": 3.037e-05,
      "inclination_deg": 53.1612,
      "raan_deg": 69.9361,
      "arg_perigee_deg": 5.8003,
      "mean_anomaly_deg": 354.3001,
      "mean_motion_rev_day": 15.3018871
    },
    {
      "epoch": "2026-03-30T22:21:11.851488Z",
      "apogee_km": 476.0448139716591,
      "perigee_km": 474.3635523126113,
      "latitude_deg": -1.7667025484079326e-05,
      "longitude_deg": -97.01733578175708,
      "height_km": 476.0002993167092,
      "semi_major_axis_km": 6853.341183142135,
      "eccentricity": 0.00012266,
      "inclination_deg": 53.1605,
      "raan_deg": 66.5981,
      "arg_perigee_deg": 83.0245,
      "mean_anomaly_deg": 277.0895,
      "mean_motion_rev_day": 15.30203646
    },
    {
      "epoch": "2026-03-31T15:35:46.722048Z",
      "apogee_km": 476.3400283036226,
      "perigee_km": 474.07842404898474,
      "latitude_deg": 1.455632328565915e-05,
      "longitude_deg": 0.2920495645588551,
      "height_km": 476.10652331124425,
      "semi_major_axis_km": 6853.346226176303,
      "eccentricity": 0.000165,
      "inclination_deg": 53.1617,
      "raan_deg": 63.2609,
      "arg_perigee_deg": 89.9783,
      "mean_anomaly_deg": 270.1407,
      "mean_motion_rev_day": 15.30201957
    },
    {
      "epoch": "2026-04-01T15:06:36.017856Z",
      "apogee_km": 476.2735450894852,
      "perigee_km": 474.27783131468095,
      "latitude_deg": -2.2451111722581208e-06,
      "longitude_deg": 2.070566046101349,
      "height_km": 476.31075116127846,
      "semi_major_axis_km": 6853.412688202083,
      "eccentricity": 0.0001456,
      "inclination_deg": 53.1613,
      "raan_deg": 58.7105,
      "arg_perigee_deg": 97.8969,
      "mean_anomaly_deg": 262.2197,
      "mean_motion_rev_day": 15.30179698
    },
    {
      "epoch": "2026-04-02T14:37:24.333888Z",
      "apogee_km": 476.53718713821763,
      "perigee_km": 473.9292056436825,
      "latitude_deg": -5.7193626054407025e-05,
      "longitude_deg": 3.8527473003940127,
      "height_km": 476.1000068962133,
      "semi_major_axis_km": 6853.37019639095,
      "eccentricity": 0.00019027,
      "inclination_deg": 53.1621,
      "raan_deg": 54.1597,
      "arg_perigee_deg": 88.6552,
      "mean_anomaly_deg": 271.4666,
      "mean_motion_rev_day": 15.30193929
    },
    {
      "epoch": "2026-04-03T14:08:12.335424Z",
      "apogee_km": 476.3691895224083,
      "perigee_km": 474.09661206330475,
      "latitude_deg": 5.933320532981669e-06,
      "longitude_deg": 5.638929853366733,
      "height_km": 476.02835064588675,
      "semi_major_axis_km": 6853.369900792856,
      "eccentricity": 0.0001658,
      "inclination_deg": 53.161,
      "raan_deg": 49.6115,
      "arg_perigee_deg": 84.8398,
      "mean_anomaly_deg": 275.2792,
      "mean_motion_rev_day": 15.30194028
    },
    {
      "epoch": "2026-04-04T05:48:44.548992Z",
      "apogee_km": 476.46410766977806,
      "perigee_km": 474.02485213345153,
      "latitude_deg": 2.681434492680164e-05,
      "longitude_deg": 126.82434732023268,
      "height_km": 476.0228024927227,
      "semi_major_axis_km": 6853.3814799016145,
      "eccentricity": 0.00017796,
      "inclination_deg": 53.1626,
      "raan_deg": 46.5749,
      "arg_perigee_deg": 84.3855,
      "mean_anomaly_deg": 275.7349,
      "mean_motion_rev_day": 15.3019015
    },
    {
      "epoch": "2026-04-05T13:09:46.968192Z",
      "apogee_km": 476.07092192089476,
      "perigee_km": 474.2959119329107,
      "latitude_deg": -8.04680389965575e-06,
      "longitude_deg": 9.212613297804483,
      "height_km": 476.0997223716756,
      "semi_major_axis_km": 6853.320416926903,
      "eccentricity": 0.0001295,
      "inclination_deg": 53.1604,
      "raan_deg": 40.5108,
      "arg_perigee_deg": 91.1761,
      "mean_anomaly_deg": 268.9388,
      "mean_motion_rev_day": 15.30210601
    },
    {
      "epoch": "2026-04-05T13:09:46.969056Z",
      "apogee_km": 476.0707848544871,
      "perigee_km": 474.2960489993193,
      "latitude_deg": -6.205204914779836e-06,
      "longitude_deg": 9.212611059998167,
      "height_km": 476.09971955887306,
      "semi_major_axis_km": 6853.320416926903,
      "eccentricity": 0.00012948,
      "inclination_deg": 53.1604,
      "raan_deg": 40.5108,
      "arg_perigee_deg": 91.1761,
      "mean_anomaly_deg": 268.9388,
      "mean_motion_rev_day": 15.30210601
    },
    {
      "epoch": "2026-04-06T06:24:22.724352Z",
      "apogee_km": 476.16959386319377,
      "perigee_km": 474.35193570801675,
      "latitude_deg": 2.3413046902250087e-05,
      "longitude_deg": 106.51699551011104,
      "height_km": 476.05754660940045,
      "semi_major_axis_km": 6853.3977647856045,
      "eccentricity": 0.00013261,
      "inclination_deg": 53.1607,
      "raan_deg": 37.1723,
      "arg_perigee_deg": 83.6007,
      "mean_anomaly_deg": 276.5145,
      "mean_motion_rev_day": 15.30184696
    },
    {
      "epoch": "2026-04-07T02:47:04.496928Z",
      "apogee_km": 476.03271173648955,
      "perigee_km": 474.38242636426276,
      "latitude_deg": 2.8962829641657947e-05,
      "longitude_deg": 156.06203926851202,
      "height_km": 475.9651556513972,
      "semi_major_axis_km": 6853.344569050376,
      "eccentricity": 0.0001204,
      "inclination_deg": 53.1605,
      "raan_deg": 33.2283,
      "arg_perigee_deg": 80.1853,
      "mean_anomaly_deg": 279.9284,
      "mean_motion_rev_day": 15.30202512
    },
    {
      "epoch": "2026-04-07T20:01:39.905760Z",
      "apogee_km": 476.09123836421986,
      "perigee_km": 474.35048546729286,
      "latitude_deg": 2.8581786796806902e-05,
      "longitude_deg": -106.63045171446221,
      "height_km": 475.9562739671402,
      "semi_major_axis_km": 6853.357861915756,
      "eccentricity": 0.000127,
      "inclination_deg": 53.1602,
      "raan_deg": 29.8915,
      "arg_perigee_deg": 79.2254,
      "mean_anomaly_deg": 280.889,
      "mean_motion_rev_day": 15.3019806
    },
    {
      "epoch": "2026-04-08T05:25:59.130048Z",
      "apogee_km": 476.08312119168477,
      "perigee_km": 474.39116018383083,
      "latitude_deg": 4.873095123438917e-05,
      "longitude_deg": 110.08369732110687,
      "height_km": 476.22521818263647,
      "semi_major_axis_km": 6853.374140687757,
      "eccentricity": 0.00012344,
      "inclination_deg": 53.1603,
      "raan_deg": 28.072,
      "arg_perigee_deg": 96.1018,
      "mean_anomaly_deg": 264.0124,
      "mean_motion_rev_day": 15.30192608
    },
    {
      "epoch": "2026-04-09T04:56:46.315968Z",
      "apogee_km": 476.04024352847136,
      "perigee_km": 474.32718748242314,
      "latitude_deg": -9.609907883569088e-06,
      "longitude_deg": 111.87089386721375,
      "height_km": 476.1758179854054,
      "semi_major_axis_km": 6853.320715505447,
      "eccentricity": 0.00012498,
      "inclination_deg": 53.1612,
      "raan_deg": 23.5215,
      "arg_perigee_deg": 96.291,
      "mean_anomaly_deg": 263.8233,
      "mean_motion_rev_day": 15.30210501
    },
    {
      "epoch": "2026-04-10T04:27:35.749152Z",
      "apogee_km": 476.14033920263955,
      "perigee_km": 474.36517418785934,
      "latitude_deg": -8.861005644571487e-06,
      "longitude_deg": 113.6474454359913,
      "height_km": 476.1366505117553,
      "semi_major_axis_km": 6853.389756695249,
      "eccentricity": 0.00012951,
      "inclination_deg": 53.1608,
      "raan_deg": 18.9697,
      "arg_perigee_deg": 89.0814,
      "mean_anomaly_deg": 271.0335,
      "mean_motion_rev_day": 15.30187378
    },
    {
      "epoch": "2026-04-11T18:04:52.364640Z",
      "apogee_km": 475.9207167959257,
      "perigee_km": 474.51166737963285,
      "latitude_deg": 3.6981163288018385e-05,
      "longitude_deg": -99.49800588128544,
      "height_km": 475.9126227704285,
      "semi_major_axis_km": 6853.353192087779,
      "eccentricity": 0.0001028,
      "inclination_deg": 53.1626,
      "raan_deg": 11.6885,
      "arg_perigee_deg": 73.3123,
      "mean_anomaly_deg": 286.7991,
      "mean_motion_rev_day": 15.30199624
    },
    {
      "epoch": "2026-04-13T02:59:58.933824Z",
      "apogee_km": 476.13062390201776,
      "perigee_km": 474.24774106664154,
      "latitude_deg": 6.423210734090798e-06,
      "longitude_deg": 119.00218452844658,
      "height_km": 475.9301569047389,
      "semi_major_axis_km": 6853.326182484329,
      "eccentricity": 0.00013737,
      "inclination_deg": 53.1627,
      "raan_deg": 5.318,
      "arg_perigee_deg": 80.3829,
      "mean_anomaly_deg": 279.7327,
      "mean_motion_rev_day": 15.3020867
    }
  ]
}